[{"OBJECT_NAME":"SHERPA-AC1","OBJECT_ID":"2022-057AH","EPOCH":"2026-04-04T21:28:35.582592","MEAN_MOTION":15.35203066,"ECCENTRICITY":0.00074832,"INCLINATION":97.6576,"RA_OF_ASC_NODE":241.1718,"ARG_OF_PERICENTER":3.6881,"MEAN_ANOMALY":356.4415,"EPHEMERIS_TYPE":0,"CLASSIFICATION_TYPE":"U","NORAD_CAT_ID":52763,"ELEMENT_SET_NO":999,"REV_AT_EPOCH":21445,"BSTAR":0.00032760785,"MEAN_MOTION_DOT":0.00011123,"MEAN_MOTION_DDOT":0},{"OBJECT_NAME":"OMNI-L2","OBJECT_ID":"2022-057AR","EPOCH":"2026-04-04T18:17:03.547104","MEAN_MOTION":14.81176326,"ECCENTRICITY":0.00064755,"INCLINATION":97.4766,"RA_OF_ASC_NODE":162.0449,"ARG_OF_PERICENTER":191.9472,"MEAN_ANOMALY":168.1589,"EPHEMERIS_TYPE":0,"CLASSIFICATION_TYPE":"U","NORAD_CAT_ID":52771,"ELEMENT_SET_NO":999,"REV_AT_EPOCH":20952,"BSTAR":0.00036854848,"MEAN_MOTION_DOT":2.82e-5,"MEAN_MOTION_DDOT":0},{"OBJECT_NAME":"STEP CUBE LAB-II","OBJECT_ID":"2022-065D","EPOCH":"2026-04-04T21:34:07.876128","MEAN_MOTION":14.63183411,"ECCENTRICITY":0.00073475,"INCLINATION":98.2105,"RA_OF_ASC_NODE":239.075,"ARG_OF_PERICENTER":251.8521,"MEAN_ANOMALY":108.1881,"EPHEMERIS_TYPE":0,"CLASSIFICATION_TYPE":"U","NORAD_CAT_ID":52897,"ELEMENT_SET_NO":999,"REV_AT_EPOCH":20078,"BSTAR":0.00042182754,"MEAN_MOTION_DOT":2.124e-5,"MEAN_MOTION_DDOT":0},{"OBJECT_NAME":"RANDEV","OBJECT_ID":"2022-065E","EPOCH":"2026-04-04T22:03:25.381728","MEAN_MOTION":14.63566475,"ECCENTRICITY":0.00067076,"INCLINATION":98.2091,"RA_OF_ASC_NODE":239.4145,"ARG_OF_PERICENTER":252.3751,"MEAN_ANOMALY":107.6718,"EPHEMERIS_TYPE":0,"CLASSIFICATION_TYPE":"U","NORAD_CAT_ID":52898,"ELEMENT_SET_NO":999,"REV_AT_EPOCH":20053,"BSTAR":0.00046483964,"MEAN_MOTION_DOT":2.365e-5,"MEAN_MOTION_DDOT":0},{"OBJECT_NAME":"SNUGLITE-II","OBJECT_ID":"2022-065F","EPOCH":"2026-04-04T20:17:30.426720","MEAN_MOTION":14.64204639,"ECCENTRICITY":0.00063268,"INCLINATION":98.2084,"RA_OF_ASC_NODE":239.8558,"ARG_OF_PERICENTER":250.0067,"MEAN_ANOMALY":110.0454,"EPHEMERIS_TYPE":0,"CLASSIFICATION_TYPE":"U","NORAD_CAT_ID":52899,"ELEMENT_SET_NO":999,"REV_AT_EPOCH":20026,"BSTAR":0.00032813648,"MEAN_MOTION_DOT":1.679e-5,"MEAN_MOTION_DDOT":0},{"OBJECT_NAME":"MIMAN","OBJECT_ID":"2022-065G","EPOCH":"2026-04-04T09:31:12.397728","MEAN_MOTION":14.61756763,"ECCENTRICITY":0.00064272,"INCLINATION":98.2137,"RA_OF_ASC_NODE":237.2994,"ARG_OF_PERICENTER":253.74,"MEAN_ANOMALY":106.3095,"EPHEMERIS_TYPE":0,"CLASSIFICATION_TYPE":"U","NORAD_CAT_ID":52900,"ELEMENT_SET_NO":999,"REV_AT_EPOCH":19966,"BSTAR":0.00024021426,"MEAN_MOTION_DOT":1.151e-5,"MEAN_MOTION_DDOT":0},{"OBJECT_NAME":"STARLINK-4362","OBJECT_ID":"2022-077A","EPOCH":"2026-04-04T22:00:01.999584","MEAN_MOTION":15.05600244,"ECCENTRICITY":0.00017798,"INCLINATION":97.6037,"RA_OF_ASC_NODE":275.9106,"ARG_OF_PERICENTER":84.726,"MEAN_ANOMALY":29.6005,"EPHEMERIS_TYPE":0,"CLASSIFICATION_TYPE":"U","NORAD_CAT_ID":53043,"ELEMENT_SET_NO":999,"REV_AT_EPOCH":571,"BSTAR":0.0051519684,"MEAN_MOTION_DOT":0.00074966,"MEAN_MOTION_DDOT":0},{"OBJECT_NAME":"LARES-2","OBJECT_ID":"2022-080A","EPOCH":"2026-03-31T05:21:37.648224","MEAN_MOTION":6.38965054,"ECCENTRICITY":0.00059524,"INCLINATION":70.1721,"RA_OF_ASC_NODE":332.0673,"ARG_OF_PERICENTER":3.9036,"MEAN_ANOMALY":356.1767,"EPHEMERIS_TYPE":0,"CLASSIFICATION_TYPE":"U","NORAD_CAT_ID":53105,"ELEMENT_SET_NO":999,"REV_AT_EPOCH":8668,"BSTAR":0,"MEAN_MOTION_DOT":-1.9e-7,"MEAN_MOTION_DDOT":0},{"OBJECT_NAME":"GREENCUBE (IO-117)","OBJECT_ID":"2022-080E","EPOCH":"2026-04-04T13:38:19.154400","MEAN_MOTION":6.4258319,"ECCENTRICITY":0.0009014,"INCLINATION":70.1528,"RA_OF_ASC_NODE":323.8593,"ARG_OF_PERICENTER":305.817,"MEAN_ANOMALY":54.1652,"EPHEMERIS_TYPE":0,"CLASSIFICATION_TYPE":"U","NORAD_CAT_ID":53109,"ELEMENT_SET_NO":999,"REV_AT_EPOCH":8733,"BSTAR":0,"MEAN_MOTION_DOT":-3.0e-8,"MEAN_MOTION_DDOT":0},{"OBJECT_NAME":"STARLINK-4410","OBJECT_ID":"2022-084R","EPOCH":"2026-04-04T22:00:01.999584","MEAN_MOTION":15.04864994,"ECCENTRICITY":0.00010606,"INCLINATION":97.6004,"RA_OF_ASC_NODE":155.8891,"ARG_OF_PERICENTER":71.843,"MEAN_ANOMALY":89.61,"EPHEMERIS_TYPE":0,"CLASSIFICATION_TYPE":"U","NORAD_CAT_ID":53204,"ELEMENT_SET_NO":999,"REV_AT_EPOCH":576,"BSTAR":0.00098762425,"MEAN_MOTION_DOT":0.00013921,"MEAN_MOTION_DDOT":0},{"OBJECT_NAME":"COSMOS 2558","OBJECT_ID":"2022-089A","EPOCH":"2026-04-04T20:29:57.973344","MEAN_MOTION":15.63571238,"ECCENTRICITY":0.000161,"INCLINATION":97.224,"RA_OF_ASC_NODE":196.6525,"ARG_OF_PERICENTER":266.4328,"MEAN_ANOMALY":93.6747,"EPHEMERIS_TYPE":0,"CLASSIFICATION_TYPE":"U","NORAD_CAT_ID":53323,"ELEMENT_SET_NO":999,"REV_AT_EPOCH":20633,"BSTAR":0.00081185,"MEAN_MOTION_DOT":0.00075698,"MEAN_MOTION_DDOT":0},{"OBJECT_NAME":"TECMS","OBJECT_ID":"2022-090A","EPOCH":"2026-04-04T22:54:25.913376","MEAN_MOTION":15.21403433,"ECCENTRICITY":0.00049235,"INCLINATION":97.3184,"RA_OF_ASC_NODE":165.1172,"ARG_OF_PERICENTER":98.4375,"MEAN_ANOMALY":261.7419,"EPHEMERIS_TYPE":0,"CLASSIFICATION_TYPE":"U","NORAD_CAT_ID":53346,"ELEMENT_SET_NO":999,"REV_AT_EPOCH":20367,"BSTAR":0.00026781295,"MEAN_MOTION_DOT":5.943e-5,"MEAN_MOTION_DDOT":0},{"OBJECT_NAME":"DONGPO 04","OBJECT_ID":"2022-098H","EPOCH":"2026-04-04T14:22:34.387104","MEAN_MOTION":15.94168007,"ECCENTRICITY":0.0005509,"INCLINATION":97.5488,"RA_OF_ASC_NODE":228.9378,"ARG_OF_PERICENTER":248.4272,"MEAN_ANOMALY":111.6415,"EPHEMERIS_TYPE":0,"CLASSIFICATION_TYPE":"U","NORAD_CAT_ID":53451,"ELEMENT_SET_NO":999,"REV_AT_EPOCH":20368,"BSTAR":0.0010446,"MEAN_MOTION_DOT":0.00384633,"MEAN_MOTION_DDOT":6.0133e-5},{"OBJECT_NAME":"DONGPO 02","OBJECT_ID":"2022-098J","EPOCH":"2026-04-04T22:26:09.564288","MEAN_MOTION":15.63348517,"ECCENTRICITY":0.00034167,"INCLINATION":97.542,"RA_OF_ASC_NODE":220.5468,"ARG_OF_PERICENTER":221.1517,"MEAN_ANOMALY":138.9484,"EPHEMERIS_TYPE":0,"CLASSIFICATION_TYPE":"U","NORAD_CAT_ID":53452,"ELEMENT_SET_NO":999,"REV_AT_EPOCH":20331,"BSTAR":0.00089635325,"MEAN_MOTION_DOT":0.00082956,"MEAN_MOTION_DDOT":0},{"OBJECT_NAME":"DONGPO 01","OBJECT_ID":"2022-098K","EPOCH":"2026-04-04T21:57:02.968416","MEAN_MOTION":15.62152788,"ECCENTRICITY":0.00015794,"INCLINATION":97.5486,"RA_OF_ASC_NODE":221.1724,"ARG_OF_PERICENTER":186.9428,"MEAN_ANOMALY":173.1808,"EPHEMERIS_TYPE":0,"CLASSIFICATION_TYPE":"U","NORAD_CAT_ID":53453,"ELEMENT_SET_NO":999,"REV_AT_EPOCH":20328,"BSTAR":0.00083492052,"MEAN_MOTION_DOT":0.0007366,"MEAN_MOTION_DDOT":0},{"OBJECT_NAME":"STARLINK-4400","OBJECT_ID":"2022-099D","EPOCH":"2026-04-04T19:24:04.713696","MEAN_MOTION":15.05647061,"ECCENTRICITY":0.00010543,"INCLINATION":97.605,"RA_OF_ASC_NODE":215.883,"ARG_OF_PERICENTER":87.131,"MEAN_ANOMALY":273.0037,"EPHEMERIS_TYPE":0,"CLASSIFICATION_TYPE":"U","NORAD_CAT_ID":53468,"ELEMENT_SET_NO":999,"REV_AT_EPOCH":19990,"BSTAR":3.059622e-5,"MEAN_MOTION_DOT":3.81e-6,"MEAN_MOTION_DDOT":0},{"OBJECT_NAME":"STARLINK-4621","OBJECT_ID":"2022-105AE","EPOCH":"2026-04-04T22:39:30.110400","MEAN_MOTION":15.05631144,"ECCENTRICITY":0.00022714,"INCLINATION":97.6013,"RA_OF_ASC_NODE":336.0228,"ARG_OF_PERICENTER":94.3236,"MEAN_ANOMALY":265.8251,"EPHEMERIS_TYPE":0,"CLASSIFICATION_TYPE":"U","NORAD_CAT_ID":53676,"ELEMENT_SET_NO":999,"REV_AT_EPOCH":19718,"BSTAR":-0.0001101846,"MEAN_MOTION_DOT":-1.65e-5,"MEAN_MOTION_DDOT":0}]
