SHERPA-AC1              
1 52763U 22057AH  26094.89485628  .00011123  00000+0  32761-3 0  9999
2 52763  97.6576 241.1718 0007483   3.6881 356.4415 15.35203066214452
OMNI-L2                 
1 52771U 22057AR  26094.76184661  .00002820  00000+0  36855-3 0  9999
2 52771  97.4766 162.0449 0006475 191.9472 168.1589 14.81176326209529
STEP CUBE LAB-II        
1 52897U 22065D   26094.89870227  .00002124  00000+0  42183-3 0  9999
2 52897  98.2105 239.0750 0007347 251.8521 108.1881 14.63183411200785
RANDEV                  
1 52898U 22065E   26094.91904377  .00002365  00000+0  46484-3 0  9992
2 52898  98.2091 239.4145 0006707 252.3751 107.6718 14.63566475200533
SNUGLITE-II             
1 52899U 22065F   26094.84549105  .00001679  00000+0  32814-3 0  9998
2 52899  98.2084 239.8558 0006326 250.0067 110.0454 14.64204639200267
MIMAN                   
1 52900U 22065G   26094.39667127  .00001151  00000+0  24021-3 0  9992
2 52900  98.2137 237.2994 0006427 253.7400 106.3095 14.61756763199665
STARLINK-4362           
1 53043U 22077A   26094.91668981  .00074966  00000+0  51520-2 0  9998
2 53043  97.6037 275.9106 0001779  84.7260  29.6005 15.05600244  5712
LARES-2                 
1 53105U 22080A   26090.22335241 -.00000019  00000+0  00000+0 0  9994
2 53105  70.1721 332.0673 0005952   3.9036 356.1767  6.38965054 86689
GREENCUBE (IO-117)      
1 53109U 22080E   26094.56827725 -.00000003  00000+0  00000+0 0  9995
2 53109  70.1528 323.8593 0009014 305.8170  54.1652  6.42583190 87336
STARLINK-4410           
1 53204U 22084R   26094.91668981  .00013921  00000+0  98762-3 0  9999
2 53204  97.6004 155.8891 0001060  71.8430  89.6100 15.04864994  5761
COSMOS 2558             
1 53323U 22089A   26094.85414321  .00075698  00000+0  81185-3 0  9996
2 53323  97.2240 196.6525 0001610 266.4328  93.6747 15.63571238206336
TECMS                   
1 53346U 22090A   26094.95446659  .00005943  00000+0  26781-3 0  9990
2 53346  97.3184 165.1172 0004923  98.4375 261.7419 15.21403433203676
DONGPO 04               
1 53451U 22098H   26094.59900911  .00384633  60133-4  10446-2 0  9995
2 53451  97.5488 228.9378 0005509 248.4272 111.6415 15.94168007203687
DONGPO 02               
1 53452U 22098J   26094.93483292  .00082956  00000+0  89635-3 0  9994
2 53452  97.5420 220.5468 0003416 221.1517 138.9484 15.63348517203317
DONGPO 01               
1 53453U 22098K   26094.91461769  .00073660  00000+0  83492-3 0  9995
2 53453  97.5486 221.1724 0001579 186.9428 173.1808 15.62152788203288
STARLINK-4400           
1 53468U 22099D   26094.80838789  .00000381  00000+0  30596-4 0  9998
2 53468  97.6050 215.8830 0001054  87.1310 273.0037 15.05647061199907
STARLINK-4621           
1 53676U 22105AE  26094.94409850 -.00001650  00000+0 -11018-3 0  9994
2 53676  97.6013 336.0228 0002271  94.3236 265.8251 15.05631144197183
